[{"OBJECT_NAME":"STARLINK-36073","OBJECT_ID":"2025-280Z","EPOCH":"2026-03-09T22:45:29.195712","MEAN_MOTION":14.98332199,"ECCENTRICITY":0.00021093,"INCLINATION":70.0025,"RA_OF_ASC_NODE":333.8389,"ARG_OF_PERICENTER":275.8635,"MEAN_ANOMALY":84.2284,"EPHEMERIS_TYPE":0,"CLASSIFICATION_TYPE":"U","NORAD_CAT_ID":66844,"ELEMENT_SET_NO":999,"REV_AT_EPOCH":1608,"BSTAR":0.00024127367,"MEAN_MOTION_DOT":2.787e-5,"MEAN_MOTION_DDOT":0},{"OBJECT_NAME":"ATLAS 5 CENTAUR R\/B","OBJECT_ID":"2007-027B","EPOCH":"2026-03-09T15:46:13.058976","MEAN_MOTION":14.51560256,"ECCENTRICITY":0.05000955,"INCLINATION":63.3111,"RA_OF_ASC_NODE":178.9158,"ARG_OF_PERICENTER":42.233,"MEAN_ANOMALY":321.6153,"EPHEMERIS_TYPE":0,"CLASSIFICATION_TYPE":"U","NORAD_CAT_ID":31702,"ELEMENT_SET_NO":999,"REV_AT_EPOCH":9634,"BSTAR":0.00064832626,"MEAN_MOTION_DOT":0.0001437,"MEAN_MOTION_DDOT":0}]
